{
  "type": "FeatureCollection",
  "features": [
    {
      "type": "Feature",
      "properties": {
        "norad_id": 31841,
        "name": "FENGYUN 1C DEB",
        "group": "fengyun-1c-debris",
        "lat": 1.1786556794501428,
        "lon": 165.20839156864884,
        "alt_km": 861.9762961792294,
        "timestamp": "2025-12-23T09:49:07.367834+00:00",
        "meta_object_name": "FENGYUN 1C DEB",
        "meta_object_id": "1999-025CJF",
        "meta_epoch": "2025-12-20T17:06:06.055776",
        "meta_mean_motion": 14.03626742,
        "meta_eccentricity": 0.03086895,
        "meta_inclination": 98.4167,
        "meta_ra_of_asc_node": 162.8817,
        "meta_arg_of_pericenter": 282.8098,
        "meta_mean_anomaly": 136.7596,
        "meta_ephemeris_type": 0,
        "meta_classification_type": "U",
        "meta_norad_cat_id": 31841,
        "meta_element_set_no": 999,
        "meta_rev_at_epoch": 59451,
        "meta_bstar": 0.0011379131,
        "meta_mean_motion_dot": 2.684e-05,
        "meta_mean_motion_ddot": 0,
        "tle_line1": "1 31841U 99025CJF 25354.71257009  .00002684  00000+0  11379-2 0  9994",
        "tle_line2": "2 31841  98.4167 162.8817 0308689 282.8098 136.7596 14.03626742594514"
      },
      "geometry": {
        "type": "Point",
        "coordinates": [
          165.20839156864884,
          1.1786556794501428
        ]
      }
    },
    {
      "type": "Feature",
      "properties": {
        "norad_id": 31843,
        "name": "FENGYUN 1C DEB",
        "group": "fengyun-1c-debris",
        "lat": 33.834533208179366,
        "lon": -69.10928257194237,
        "alt_km": 913.4453780353451,
        "timestamp": "2025-12-23T09:49:07.367844+00:00",
        "meta_object_name": "FENGYUN 1C DEB",
        "meta_object_id": "1999-025CJH",
        "meta_epoch": "2025-12-16T15:40:09.812640",
        "meta_mean_motion": 13.33949191,
        "meta_eccentricity": 0.06398792,
        "meta_inclination": 99.2827,
        "meta_ra_of_asc_node": 291.0118,
        "meta_arg_of_pericenter": 344.4578,
        "meta_mean_anomaly": 13.7684,
        "meta_ephemeris_type": 0,
        "meta_classification_type": "U",
        "meta_norad_cat_id": 31843,
        "meta_element_set_no": 999,
        "meta_rev_at_epoch": 64748,
        "meta_bstar": 0.0054292253,
        "meta_mean_motion_dot": 8.684e-05,
        "meta_mean_motion_ddot": 0,
        "tle_line1": "1 31843U 99025CJH 25350.65289135  .00008684  00000+0  54292-2 0  9997",
        "tle_line2": "2 31843  99.2827 291.0118 0639879 344.4578  13.7684 13.33949191647488"
      },
      "geometry": {
        "type": "Point",
        "coordinates": [
          -69.10928257194237,
          33.834533208179366
        ]
      }
    },
    {
      "type": "Feature",
      "properties": {
        "norad_id": 31844,
        "name": "FENGYUN 1C DEB",
        "group": "fengyun-1c-debris",
        "lat": -1.509886971058788,
        "lon": 167.53056492941778,
        "alt_km": 886.0541412012235,
        "timestamp": "2025-12-23T09:49:07.367854+00:00",
        "meta_object_name": "FENGYUN 1C DEB",
        "meta_object_id": "1999-025CJJ",
        "meta_epoch": "2025-12-22T05:53:58.080768",
        "meta_mean_motion": 14.19786515,
        "meta_eccentricity": 0.01031911,
        "meta_inclination": 100.3025,
        "meta_ra_of_asc_node": 346.4534,
        "meta_arg_of_pericenter": 324.9556,
        "meta_mean_anomaly": 34.4854,
        "meta_ephemeris_type": 0,
        "meta_classification_type": "U",
        "meta_norad_cat_id": 31844,
        "meta_element_set_no": 999,
        "meta_rev_at_epoch": 95467,
        "meta_bstar": 0.00090434906,
        "meta_mean_motion_dot": 1.963e-05,
        "meta_mean_motion_ddot": 0,
        "tle_line1": "1 31844U 99025CJJ 25356.24581112  .00001963  00000+0  90435-3 0  9992",
        "tle_line2": "2 31844 100.3025 346.4534 0103191 324.9556  34.4854 14.19786515954677"
      },
      "geometry": {
        "type": "Point",
        "coordinates": [
          167.53056492941778,
          -1.509886971058788
        ]
      }
    },
    {
      "type": "Feature",
      "properties": {
        "norad_id": 31850,
        "name": "FENGYUN 1C DEB",
        "group": "fengyun-1c-debris",
        "lat": 71.80348454236812,
        "lon": -108.99283984239163,
        "alt_km": 422.18668125703516,
        "timestamp": "2025-12-23T09:49:07.367865+00:00",
        "meta_object_name": "FENGYUN 1C DEB",
        "meta_object_id": "1999-025CJQ",
        "meta_epoch": "2025-12-14T09:23:04.476192",
        "meta_mean_motion": 15.33433546,
        "meta_eccentricity": 0.00762245,
        "meta_inclination": 98.5734,
        "meta_ra_of_asc_node": 33.2199,
        "meta_arg_of_pericenter": 83.7911,
        "meta_mean_anomaly": 277.2005,
        "meta_ephemeris_type": 0,
        "meta_classification_type": "U",
        "meta_norad_cat_id": 31850,
        "meta_element_set_no": 999,
        "meta_rev_at_epoch": 65854,
        "meta_bstar": 0.0030655456,
        "meta_mean_motion_dot": 0.00109983,
        "meta_mean_motion_ddot": 0,
        "tle_line1": "1 31850U 99025CJQ 25348.39102403  .00109983  00000+0  30655-2 0  9996",
        "tle_line2": "2 31850  98.5734  33.2199 0076224  83.7911 277.2005 15.33433546658540"
      },
      "geometry": {
        "type": "Point",
        "coordinates": [
          -108.99283984239163,
          71.80348454236812
        ]
      }
    },
    {
      "type": "Feature",
      "properties": {
        "norad_id": 31854,
        "name": "FENGYUN 1C DEB",
        "group": "fengyun-1c-debris",
        "lat": -30.538579038330315,
        "lon": 175.03994889697842,
        "alt_km": 897.095561342895,
        "timestamp": "2025-12-23T09:49:07.367875+00:00",
        "meta_object_name": "FENGYUN 1C DEB",
        "meta_object_id": "1999-025CJU",
        "meta_epoch": "2025-12-21T17:27:39.191616",
        "meta_mean_motion": 14.03088921,
        "meta_eccentricity": 0.00723413,
        "meta_inclination": 98.848,
        "meta_ra_of_asc_node": 358.6778,
        "meta_arg_of_pericenter": 116.2745,
        "meta_mean_anomaly": 244.5878,
        "meta_ephemeris_type": 0,
        "meta_classification_type": "U",
        "meta_norad_cat_id": 31854,
        "meta_element_set_no": 999,
        "meta_rev_at_epoch": 69398,
        "meta_bstar": 0.00055936664,
        "meta_mean_motion_dot": 8.48e-06,
        "meta_mean_motion_ddot": 0,
        "tle_line1": "1 31854U 99025CJU 25355.72753694  .00000848  00000+0  55937-3 0  9990",
        "tle_line2": "2 31854  98.8480 358.6778 0072341 116.2745 244.5878 14.03088921693986"
      },
      "geometry": {
        "type": "Point",
        "coordinates": [
          175.03994889697842,
          -30.538579038330315
        ]
      }
    },
    {
      "type": "Feature",
      "properties": {
        "norad_id": 31857,
        "name": "FENGYUN 1C DEB",
        "group": "fengyun-1c-debris",
        "lat": -11.049156432557135,
        "lon": -158.10772143318738,
        "alt_km": 917.4750081300499,
        "timestamp": "2025-12-23T09:49:07.367885+00:00",
        "meta_object_name": "FENGYUN 1C DEB",
        "meta_object_id": "1999-025CJX",
        "meta_epoch": "2025-12-21T19:49:30.664704",
        "meta_mean_motion": 13.61956441,
        "meta_eccentricity": 0.03096802,
        "meta_inclination": 96.1878,
        "meta_ra_of_asc_node": 22.0982,
        "meta_arg_of_pericenter": 256.7702,
        "meta_mean_anomaly": 99.8737,
        "meta_ephemeris_type": 0,
        "meta_classification_type": "U",
        "meta_norad_cat_id": 31857,
        "meta_element_set_no": 999,
        "meta_rev_at_epoch": 61753,
        "meta_bstar": 0.0014310612,
        "meta_mean_motion_dot": 1.495e-05,
        "meta_mean_motion_ddot": 0,
        "tle_line1": "1 31857U 99025CJX 25355.82604936  .00001495  00000+0  14311-2 0  9997",
        "tle_line2": "2 31857  96.1878  22.0982 0309680 256.7702  99.8737 13.61956441617538"
      },
      "geometry": {
        "type": "Point",
        "coordinates": [
          -158.10772143318738,
          -11.049156432557135
        ]
      }
    },
    {
      "type": "Feature",
      "properties": {
        "norad_id": 31861,
        "name": "FENGYUN 1C DEB",
        "group": "fengyun-1c-debris",
        "lat": 29.089781475206614,
        "lon": -174.83542010455866,
        "alt_km": 1466.1479060835964,
        "timestamp": "2025-12-23T09:49:07.367896+00:00",
        "meta_object_name": "FENGYUN 1C DEB",
        "meta_object_id": "1999-025CKB",
        "meta_epoch": "2025-12-22T08:23:07.626048",
        "meta_mean_motion": 13.30350862,
        "meta_eccentricity": 0.04925861,
        "meta_inclination": 102.3403,
        "meta_ra_of_asc_node": 190.8894,
        "meta_arg_of_pericenter": 184.0314,
        "meta_mean_anomaly": 175.6758,
        "meta_ephemeris_type": 0,
        "meta_classification_type": "U",
        "meta_norad_cat_id": 31861,
        "meta_element_set_no": 999,
        "meta_rev_at_epoch": 66895,
        "meta_bstar": 0.0023684948,
        "meta_mean_motion_dot": 2.121e-05,
        "meta_mean_motion_ddot": 0,
        "tle_line1": "1 31861U 99025CKB 25356.34939382  .00002121  00000+0  23685-2 0  9997",
        "tle_line2": "2 31861 102.3403 190.8894 0492586 184.0314 175.6758 13.30350862668952"
      },
      "geometry": {
        "type": "Point",
        "coordinates": [
          -174.83542010455866,
          29.089781475206614
        ]
      }
    }
  ]
}